{"type": "FeatureCollection", "features": [ {"type": "Feature", "properties": {"norad_id": 31535, "name": "FENGYUN 1C DEB", "group": "fengyun-1c-debris", "lat": 34.03464153002037, "lon": 30.891515092458157, "alt_km": 733.1223489461245, "timestamp": "2025-12-22T05:49:03.782686+00:00", "meta": {"OBJECT_NAME": "FENGYUN 1C DEB", "OBJECT_ID": "1999-025BYA", "EPOCH": "2025-12-08T20:01:31.264032", "MEAN_MOTION": 14.28309987, "ECCENTRICITY": 0.00876599, "INCLINATION": 98.0348, "RA_OF_ASC_NODE": 193.0693, "ARG_OF_PERICENTER": 174.5726, "MEAN_ANOMALY": 185.6428, "EPHEMERIS_TYPE": 0, "CLASSIFICATION_TYPE": "U", "NORAD_CAT_ID": 31535, "ELEMENT_SET_NO": 999, "REV_AT_EPOCH": 71875, "BSTAR": 0.0012494375, "MEAN_MOTION_DOT": 3.212e-05, "MEAN_MOTION_DDOT": 0}, "tle": {"line1": "1 31535U 99025BYA 25342.83438963  .00003212  00000+0  12494-2 0  9991", "line2": "2 31535  98.0348 193.0693 0087659 174.5726 185.6428 14.28309987718752"}}, "geometry": {"type": "Point", "coordinates": [30.891515092458157, 34.03464153002037]}}, {"type": "Feature", "properties": {"norad_id": 31536, "name": "FENGYUN 1C DEB", "group": "fengyun-1c-debris", "lat": 15.770176866123427, "lon": 85.83022089021846, "alt_km": 570.3124789977146, "timestamp": "2025-12-22T05:49:03.782697+00:00", "meta": {"OBJECT_NAME": "FENGYUN 1C DEB", "OBJECT_ID": "1999-025BYB", "EPOCH": "2025-12-20T11:48:47.297376", "MEAN_MOTION": 14.54408017, "ECCENTRICITY": 0.0294552, "INCLINATION": 98.237, "RA_OF_ASC_NODE": 261.7597, "ARG_OF_PERICENTER": 120.8116, "MEAN_ANOMALY": 242.2425, "EPHEMERIS_TYPE": 0, "CLASSIFICATION_TYPE": "U", "NORAD_CAT_ID": 31536, "ELEMENT_SET_NO": 999, "REV_AT_EPOCH": 96370, "BSTAR": 0.00052050539, "MEAN_MOTION_DOT": 3.913e-05, "MEAN_MOTION_DDOT": 0}, "tle": {"line1": "1 31536U 99025BYB 25354.49221409  .00003913  00000+0  52051-3 0  9994", "line2": "2 31536  98.2370 261.7597 0294552 120.8116 242.2425 14.54408017963702"}}, "geometry": {"type": "Point", "coordinates": [85.83022089021846, 15.770176866123427]}}, {"type": "Feature", "properties": {"norad_id": 31537, "name": "FENGYUN 1C DEB", "group": "fengyun-1c-debris", "lat": 80.11422172099591, "lon": 39.88474508793156, "alt_km": 1044.3403905533596, "timestamp": "2025-12-22T05:49:03.782707+00:00", "meta": {"OBJECT_NAME": "FENGYUN 1C DEB", "OBJECT_ID": "1999-025BYC", "EPOCH": "2025-12-19T16:30:43.612128", "MEAN_MOTION": 14.2041752, "ECCENTRICITY": 0.03488521, "INCLINATION": 99.2936, "RA_OF_ASC_NODE": 147.2111, "ARG_OF_PERICENTER": 304.6458, "MEAN_ANOMALY": 52.2285, "EPHEMERIS_TYPE": 0, "CLASSIFICATION_TYPE": "U", "NORAD_CAT_ID": 31537, "ELEMENT_SET_NO": 999, "REV_AT_EPOCH": 93380, "BSTAR": 0.0014793141, "MEAN_MOTION_DOT": 5.816e-05, "MEAN_MOTION_DDOT": 0}, "tle": {"line1": "1 31537U 99025BYC 25353.68800477  .00005816  00000+0  14793-2 0  9997", "line2": "2 31537  99.2936 147.2111 0348852 304.6458  52.2285 14.20417520933809"}}, "geometry": {"type": "Point", "coordinates": [39.88474508793156, 80.11422172099591]}}, {"type": "Feature", "properties": {"norad_id": 31540, "name": "FENGYUN 1C DEB", "group": "fengyun-1c-debris", "lat": 3.386370826912423, "lon": -22.818958102507004, "alt_km": 687.6008357324345, "timestamp": "2025-12-22T05:49:03.782718+00:00", "meta": {"OBJECT_NAME": "FENGYUN 1C DEB", "OBJECT_ID": "1999-025BYF", "EPOCH": "2025-12-20T03:50:13.941312", "MEAN_MOTION": 14.65461728, "ECCENTRICITY": 0.01765212, "INCLINATION": 99.0562, "RA_OF_ASC_NODE": 154.3463, "ARG_OF_PERICENTER": 278.2457, "MEAN_ANOMALY": 79.8759, "EPHEMERIS_TYPE": 0, "CLASSIFICATION_TYPE": "U", "NORAD_CAT_ID": 31540, "ELEMENT_SET_NO": 999, "REV_AT_EPOCH": 98410, "BSTAR": 0.0005650508, "MEAN_MOTION_DOT": 3.781e-05, "MEAN_MOTION_DDOT": 0}, "tle": {"line1": "1 31540U 99025BYF 25354.15988358  .00003781  00000+0  56505-3 0  9996", "line2": "2 31540  99.0562 154.3463 0176521 278.2457  79.8759 14.65461728984100"}}, "geometry": {"type": "Point", "coordinates": [-22.818958102507004, 3.386370826912423]}}, {"type": "Feature", "properties": {"norad_id": 31541, "name": "FENGYUN 1C DEB", "group": "fengyun-1c-debris", "lat": -39.473989441416585, "lon": -47.90447076037335, "alt_km": 616.2593722493139, "timestamp": "2025-12-22T05:49:03.782729+00:00", "meta": {"OBJECT_NAME": "FENGYUN 1C DEB", "OBJECT_ID": "1999-025BYG", "EPOCH": "2025-12-21T05:55:51.676032", "MEAN_MOTION": 14.68951208, "ECCENTRICITY": 0.0078501, "INCLINATION": 98.9797, "RA_OF_ASC_NODE": 138.4857, "ARG_OF_PERICENTER": 213.828, "MEAN_ANOMALY": 145.7901, "EPHEMERIS_TYPE": 0, "CLASSIFICATION_TYPE": "U", "NORAD_CAT_ID": 31541, "ELEMENT_SET_NO": 999, "REV_AT_EPOCH": 98548, "BSTAR": 0.0010192, "MEAN_MOTION_DOT": 6.197e-05, "MEAN_MOTION_DDOT": 0}, "tle": {"line1": "1 31541U 99025BYG 25355.24712588  .00006197  00000+0  10192-2 0  9993", "line2": "2 31541  98.9797 138.4857 0078501 213.8280 145.7901 14.68951208985481"}}, "geometry": {"type": "Point", "coordinates": [-47.90447076037335, -39.473989441416585]}}, {"type": "Feature", "properties": {"norad_id": 31542, "name": "FENGYUN 1C DEB", "group": "fengyun-1c-debris", "lat": -39.93712110586763, "lon": 57.557346238932396, "alt_km": 848.3540784475008, "timestamp": "2025-12-22T05:49:03.782739+00:00", "meta": {"OBJECT_NAME": "FENGYUN 1C DEB", "OBJECT_ID": "1999-025BYH", "EPOCH": "2025-12-18T22:41:09.230208", "MEAN_MOTION": 14.22828714, "ECCENTRICITY": 0.00477715, "INCLINATION": 98.7313, "RA_OF_ASC_NODE": 46.8971, "ARG_OF_PERICENTER": 189.4267, "MEAN_ANOMALY": 170.6019, "EPHEMERIS_TYPE": 0, "CLASSIFICATION_TYPE": "U", "NORAD_CAT_ID": 31542, "ELEMENT_SET_NO": 999, "REV_AT_EPOCH": 96028, "BSTAR": 0.0010244402, "MEAN_MOTION_DOT": 2.283e-05, "MEAN_MOTION_DDOT": 0}, "tle": {"line1": "1 31542U 99025BYH 25352.94524572  .00002283  00000+0  10244-2 0  9992", "line2": "2 31542  98.7313  46.8971 0047771 189.4267 170.6019 14.22828714960284"}}, "geometry": {"type": "Point", "coordinates": [57.557346238932396, -39.93712110586763]}}, {"type": "Feature", "properties": {"norad_id": 31544, "name": "FENGYUN 1C DEB", "group": "fengyun-1c-debris", "lat": 58.849132807153694, "lon": -117.70579552772377, "alt_km": 850.8871288732871, "timestamp": "2025-12-22T05:49:03.782750+00:00", "meta": {"OBJECT_NAME": "FENGYUN 1C DEB", "OBJECT_ID": "1999-025BYK", "EPOCH": "2025-12-21T08:52:32.100672", "MEAN_MOTION": 14.14356703, "ECCENTRICITY": 0.00321722, "INCLINATION": 98.8283, "RA_OF_ASC_NODE": 46.5331, "ARG_OF_PERICENTER": 244.0135, "MEAN_ANOMALY": 115.7723, "EPHEMERIS_TYPE": 0, "CLASSIFICATION_TYPE": "U", "NORAD_CAT_ID": 31544, "ELEMENT_SET_NO": 999, "REV_AT_EPOCH": 95879, "BSTAR": 0.00058873902, "MEAN_MOTION_DOT": 1.087e-05, "MEAN_MOTION_DDOT": 0}, "tle": {"line1": "1 31544U 99025BYK 25355.36981598  .00001087  00000+0  58874-3 0  9991", "line2": "2 31544  98.8283  46.5331 0032172 244.0135 115.7723 14.14356703958791"}}, "geometry": {"type": "Point", "coordinates": [-117.70579552772377, 58.849132807153694]}}, {"type": "Feature", "properties": {"norad_id": 31546, "name": "FENGYUN 1C DEB", "group": "fengyun-1c-debris", "lat": -64.02324054860829, "lon": -132.29949876142655, "alt_km": 930.2670750951411, "timestamp": "2025-12-22T05:49:03.782760+00:00", "meta": {"OBJECT_NAME": "FENGYUN 1C DEB", "OBJECT_ID": "1999-025BYM", "EPOCH": "2025-12-19T10:24:07.291008", "MEAN_MOTION": 14.13171121, "ECCENTRICITY": 0.0145952, "INCLINATION": 98.2438, "RA_OF_ASC_NODE": 62.4217, "ARG_OF_PERICENTER": 117.7512, "MEAN_ANOMALY": 243.855, "EPHEMERIS_TYPE": 0, "CLASSIFICATION_TYPE": "U", "NORAD_CAT_ID": 31546, "ELEMENT_SET_NO": 999, "REV_AT_EPOCH": 94883, "BSTAR": 0.0011276, "MEAN_MOTION_DOT": 2.297e-05, "MEAN_MOTION_DDOT": 0}, "tle": {"line1": "1 31546U 99025BYM 25353.43341772  .00002297  00000+0  11276-2 0  9991", "line2": "2 31546  98.2438  62.4217 0145952 117.7512 243.8550 14.13171121948838"}}, "geometry": {"type": "Point", "coordinates": [-132.29949876142655, -64.02324054860829]}}, {"type": "Feature", "properties": {"norad_id": 31547, "name": "FENGYUN 1C DEB", "group": "fengyun-1c-debris", "lat": -2.8508640521044373, "lon": 40.77152604785143, "alt_km": 843.6748409891215, "timestamp": "2025-12-22T05:49:03.782771+00:00", "meta": {"OBJECT_NAME": "FENGYUN 1C DEB", "OBJECT_ID": "1999-025BYN", "EPOCH": "2025-12-21T09:35:00.977568", "MEAN_MOTION": 14.23179941, "ECCENTRICITY": 0.00547026, "INCLINATION": 99.0858, "RA_OF_ASC_NODE": 39.4452, "ARG_OF_PERICENTER": 228.4425, "MEAN_ANOMALY": 131.2055, "EPHEMERIS_TYPE": 0, "CLASSIFICATION_TYPE": "U", "NORAD_CAT_ID": 31547, "ELEMENT_SET_NO": 999, "REV_AT_EPOCH": 64140, "BSTAR": 0.0010418222, "MEAN_MOTION_DOT": 2.344e-05, "MEAN_MOTION_DDOT": 0}, "tle": {"line1": "1 31547U 99025BYN 25355.39931687  .00002344  00000+0  10418-2 0  9999", "line2": "2 31547  99.0858  39.4452 0054702 228.4425 131.2055 14.23179941641406"}}, "geometry": {"type": "Point", "coordinates": [40.77152604785143, -2.8508640521044373]}}, {"type": "Feature", "properties": {"norad_id": 31550, "name": "FENGYUN 1C DEB", "group": "fengyun-1c-debris", "lat": 36.60116003333081, "lon": -10.799690341294346, "alt_km": 875.4505807478217, "timestamp": "2025-12-22T05:49:03.782808+00:00", "meta": {"OBJECT_NAME": "FENGYUN 1C DEB", "OBJECT_ID": "1999-025BYR", "EPOCH": "2025-12-19T17:37:00.408000", "MEAN_MOTION": 14.40245383, "ECCENTRICITY": 0.01900387, "INCLINATION": 98.3108, "RA_OF_ASC_NODE": 352.9958, "ARG_OF_PERICENTER": 251.6131, "MEAN_ANOMALY": 106.4311, "EPHEMERIS_TYPE": 0, "CLASSIFICATION_TYPE": "U", "NORAD_CAT_ID": 31550, "ELEMENT_SET_NO": 999, "REV_AT_EPOCH": 65555, "BSTAR": 0.00046139834, "MEAN_MOTION_DOT": 1.756e-05, "MEAN_MOTION_DDOT": 0}, "tle": {"line1": "1 31550U 99025BYR 25353.73403250  .00001756  00000+0  46140-3 0  9997", "line2": "2 31550  98.3108 352.9958 0190038 251.6131 106.4311 14.40245383655552"}}, "geometry": {"type": "Point", "coordinates": [-10.799690341294346, 36.60116003333081]}}]}